ONEWEB-0365             
1 49291U 21090N   26204.50294308  .00000025  00000+0  29962-4 0  9990
2 49291  87.9193 297.7384 0002107 100.7544 259.3826 13.19727177231214
ONEWEB-0366             
1 49292U 21090P   26204.21125993  .00000215  00000+0  54501-3 0  9999
2 49292  87.8966 282.5299 0002009  96.5849 263.5510 13.14502962232294
ONEWEB-0367             
1 49293U 21090Q   26204.22337602 -.00000006  00000+0 -45937-4 0  9997
2 49293  87.9176 267.2601 0002256  99.6119 260.5269 13.20773657234584
ONEWEB-0368             
1 49294U 21090R   26204.42457650  .00000143  00000+0  32070-3 0  9999
2 49294  87.9167 267.2262 0001891 117.9127 242.2198 13.20772237235767
ONEWEB-0369             
1 49295U 21090S   26204.49820380  .00000067  00000+0  13425-3 0  9999
2 49295  87.9183 297.7438 0002030 102.8240 257.3119 13.19727082231205
ONEWEB-0370             
1 49296U 21090T   26204.61143193  .00000004  00000+0 -21657-4 0  9993
2 49296  87.9172 267.1815 0002163  91.0334 269.1047 13.20772920234672
ONEWEB-0371             
1 49297U 21090U   26204.50610779  .00000081  00000+0  17068-3 0  9995
2 49297  87.9189 297.7373 0002115 100.2441 259.8930 13.19726076231244
ONEWEB-0372             
1 49298U 21090V   26204.60119830  .00000052  00000+0  95980-4 0  9997
2 49298  87.9174 267.1858 0002079  98.1890 261.9479 13.20769810234644
ONEWEB-0373             
1 49299U 21090W   26204.24779463 -.00000051  00000+0 -15731-3 0  9998
2 49299  87.9175 267.2557 0001980  94.8674 265.2685 13.20769961235785
ONEWEB-0374             
1 49300U 21090X   26204.27467505  .00000099  00000+0  23214-3 0  9990
2 49300  87.8967 282.5088 0001415  94.4296 265.6995 13.14503044232308
ONEWEB-0375             
1 49301U 21090Y   26204.23601158 -.00000047  00000+0 -14759-3 0  9990
2 49301  87.9177 267.2506 0001522  89.7603 270.3705 13.20770406235283
ONEWEB-0376             
1 49302U 21090Z   26204.27707242  .00000081  00000+0  16954-3 0  9991
2 49302  87.9193 297.7830 0002136 103.6076 256.5294 13.19724494231214
ONEWEB-0377             
1 49303U 21090AA  26204.22267603  .00000023  00000+0  24515-4 0  9998
2 49303  87.9177 267.2551 0001734  96.1567 263.9764 13.20769592235277
ONEWEB-0378             
1 49304U 21090AB  26204.47016437  .00000023  00000+0  25150-4 0  9999
2 49304  87.9175 267.2096 0002013 102.3563 257.7795 13.20772226234572
ONEWEB-0379             
1 49305U 21090AC  26204.49827930  .00000114  00000+0  27166-3 0  9999
2 49305  87.8959 282.4739 0001896  99.8177 260.3167 13.14502845232330
ONEWEB-0380             
1 49306U 21090AD  26204.27391321  .00000067  00000+0  13476-3 0  9992
2 49306  87.9182 297.7860 0001924  94.7468 265.3884 13.19727161231181
ONEWEB-0381             
1 49307U 21090AE  26204.59795933  .00000019  00000+0  14322-4 0  9994
2 49307  87.9177 267.1855 0001790  95.5412 264.5926 13.20769874234630
ONEWEB-0382             
1 49308U 21090AF  26204.20571819  .00000118  00000+0  25722-3 0  9993
2 49308  87.9176 267.2568 0001747  98.9498 261.1833 13.20771978234576
ONEWEB-0383             
1 49309U 21090AG  26204.26357888  .00000025  00000+0  32219-4 0  9995
2 49309  87.8962 282.5129 0001903 102.6601 257.4742 13.14503735232331
ONEWEB-0384             
1 49310U 21090AH  26204.19321283  .00000097  00000+0  20719-3 0  9999
2 49310  87.9180 267.3037 0001619 104.4722 255.6591 13.20815404234580
ONEWEB-0385             
1 49311U 21090AJ  26204.19897932  .00000114  00000+0  24962-3 0  9993
2 49311  87.9175 267.2637 0001867  97.1250 263.0096 13.20771317234553
ONEWEB-0386             
1 49312U 21090AK  26204.44307631  .00000088  00000+0  18478-3 0  9999
2 49312  87.9169 267.2065 0001815  98.9853 261.1486 13.20770738234607
ONEWEB-0387             
1 49313U 21090AL  26204.42793234  .00000109  00000+0  23495-3 0  9995
2 49313  87.9168 267.2279 0001892  88.6342 271.5009 13.20771450234606
ONEWEB-0388             
1 49314U 21090AM  26204.26918162 -.00000001  00000+0 -33711-4 0  9993
2 49314  87.9186 297.7854 0001859 101.0151 259.1191 13.19724380231176
ONEWEB-0389             
1 50469U 21132A   26204.42026288  .00000062  00000+0  12773-3 0  9999
2 50469  87.9154 358.6609 0001580  85.6967 274.4345 13.17647830222850
ONEWEB-0390             
1 50470U 21132B   26204.42195078  .00000023  00000+0  26212-4 0  9996
2 50470  87.9146 358.6616 0002078  89.8783 270.2587 13.17648166222851
ONEWEB-0391             
1 50471U 21132C   26204.34770082  .00000108  00000+0  24452-3 0  9999
2 50471  87.9157 358.6860 0001643  68.7907 291.3400 13.17647957222840
ONEWEB-0392             
1 50472U 21132D   26204.37807828  .00000025  00000+0  30439-4 0  9993
2 50472  87.9161 358.6512 0001596  84.4998 275.6316 13.17648051222883
ONEWEB-0393             
1 50473U 21132E   26204.42956200  .00000020  00000+0  17371-4 0  9994
2 50473  87.9157 358.6535 0001677  91.1262 269.0062 13.17648099222880
ONEWEB-0394             
1 50474U 21132F   26204.36708190  .00000062  00000+0  12548-3 0  9997
2 50474  87.9210 328.2505 0001770 100.9424 259.1908 13.18686074226366
