OBJECT_NAME,OBJECT_ID,EPOCH,MEAN_MOTION,ECCENTRICITY,INCLINATION,RA_OF_ASC_NODE,ARG_OF_PERICENTER,MEAN_ANOMALY,EPHEMERIS_TYPE,CLASSIFICATION_TYPE,NORAD_CAT_ID,ELEMENT_SET_NO,REV_AT_EPOCH,BSTAR,MEAN_MOTION_DOT,MEAN_MOTION_DDOT
ONEWEB-0365,2021-090N,2026-07-23T12:04:14.282112,13.19727177,.00021073,87.9193,297.7384,100.7544,259.3826,0,U,49291,999,23121,.29961851E-4,.25E-6,0
ONEWEB-0366,2021-090P,2026-07-23T05:04:12.857952,13.14502962,.00020095,87.8966,282.5299,96.5849,263.5510,0,U,49292,999,23229,.54500959E-3,.215E-5,0
ONEWEB-0367,2021-090Q,2026-07-23T05:21:39.688128,13.20773657,.00022569,87.9176,267.2601,99.6119,260.5269,0,U,49293,999,23458,-.4593713E-4,-.6E-7,0
ONEWEB-0368,2021-090R,2026-07-23T10:11:23.409600,13.20772237,.00018917,87.9167,267.2262,117.9127,242.2198,0,U,49294,999,23576,.32069767E-3,.143E-5,0
ONEWEB-0369,2021-090S,2026-07-23T11:57:24.808320,13.19727082,.00020309,87.9183,297.7438,102.8240,257.3119,0,U,49295,999,23120,.13424703E-3,.67E-6,0
ONEWEB-0370,2021-090T,2026-07-23T14:40:27.718752,13.20772920,.00021633,87.9172,267.1815,91.0334,269.1047,0,U,49296,999,23467,-.21656692E-4,.4E-7,0
ONEWEB-0371,2021-090U,2026-07-23T12:08:47.713056,13.19726076,.0002115,87.9189,297.7373,100.2441,259.8930,0,U,49297,999,23124,.17068067E-3,.81E-6,0
ONEWEB-0372,2021-090V,2026-07-23T14:25:43.533120,13.20769810,.0002079,87.9174,267.1858,98.1890,261.9479,0,U,49298,999,23464,.95980094E-4,.52E-6,0
ONEWEB-0373,2021-090W,2026-07-23T05:56:49.456032,13.20769961,.00019808,87.9175,267.2557,94.8674,265.2685,0,U,49299,999,23578,-.15731407E-3,-.51E-6,0
ONEWEB-0374,2021-090X,2026-07-23T06:35:31.924320,13.14503044,.00014153,87.8967,282.5088,94.4296,265.6995,0,U,49300,999,23230,.23214071E-3,.99E-6,0
ONEWEB-0375,2021-090Y,2026-07-23T05:39:51.400512,13.20770406,.00015223,87.9177,267.2506,89.7603,270.3705,0,U,49301,999,23528,-.14758502E-3,-.47E-6,0
ONEWEB-0376,2021-090Z,2026-07-23T06:38:59.057088,13.19724494,.00021366,87.9193,297.7830,103.6076,256.5294,0,U,49302,999,23121,.16954067E-3,.81E-6,0
ONEWEB-0377,2021-090AA,2026-07-23T05:20:39.208992,13.20769592,.00017345,87.9177,267.2551,96.1567,263.9764,0,U,49303,999,23527,.24514896E-4,.23E-6,0
ONEWEB-0378,2021-090AB,2026-07-23T11:17:02.201568,13.20772226,.00020131,87.9175,267.2096,102.3563,257.7795,0,U,49304,999,23457,.25149642E-4,.23E-6,0
ONEWEB-0379,2021-090AC,2026-07-23T11:57:31.331520,13.14502845,.00018965,87.8959,282.4739,99.8177,260.3167,0,U,49305,999,23233,.2716637E-3,.114E-5,0
ONEWEB-0380,2021-090AD,2026-07-23T06:34:26.101344,13.19727161,.0001924,87.9182,297.7860,94.7468,265.3884,0,U,49306,999,23118,.13476214E-3,.67E-6,0
ONEWEB-0381,2021-090AE,2026-07-23T14:21:03.686112,13.20769874,.00017908,87.9177,267.1855,95.5412,264.5926,0,U,49307,999,23463,.14321821E-4,.19E-6,0
ONEWEB-0382,2021-090AF,2026-07-23T04:56:14.051616,13.20771978,.00017479,87.9176,267.2568,98.9498,261.1833,0,U,49308,999,23457,.25722299E-3,.118E-5,0
ONEWEB-0383,2021-090AG,2026-07-23T06:19:33.215232,13.14503735,.00019038,87.8962,282.5129,102.6601,257.4742,0,U,49309,999,23233,.32219119E-4,.25E-6,0
ONEWEB-0384,2021-090AH,2026-07-23T04:38:13.588512,13.20815404,.00016191,87.9180,267.3037,104.4722,255.6591,0,U,49310,999,23458,.20718541E-3,.97E-6,0
ONEWEB-0385,2021-090AJ,2026-07-23T04:46:31.813248,13.20771317,.00018673,87.9175,267.2637,97.1250,263.0096,0,U,49311,999,23455,.24961722E-3,.114E-5,0
ONEWEB-0386,2021-090AK,2026-07-23T10:38:01.793184,13.20770738,.00018152,87.9169,267.2065,98.9853,261.1486,0,U,49312,999,23460,.18478456E-3,.88E-6,0
ONEWEB-0387,2021-090AL,2026-07-23T10:16:13.354176,13.20771450,.00018929,87.9168,267.2279,88.6342,271.5009,0,U,49313,999,23460,.23495184E-3,.109E-5,0
ONEWEB-0388,2021-090AM,2026-07-23T06:27:37.291968,13.19724380,.00018593,87.9186,297.7854,101.0151,259.1191,0,U,49314,999,23117,-.33711239E-4,-.1E-7,0
ONEWEB-0389,2021-132A,2026-07-23T10:05:10.712832,13.17647830,.00015809,87.9154,358.6609,85.6967,274.4345,0,U,50469,999,22285,.12772787E-3,.62E-6,0
ONEWEB-0390,2021-132B,2026-07-23T10:07:36.547392,13.17648166,.00020782,87.9146,358.6616,89.8783,270.2587,0,U,50470,999,22285,.26212282E-4,.23E-6,0
ONEWEB-0391,2021-132C,2026-07-23T08:20:41.350848,13.17647957,.00016437,87.9157,358.6860,68.7907,291.3400,0,U,50471,999,22284,.24451732E-3,.108E-5,0
ONEWEB-0392,2021-132D,2026-07-23T09:04:25.963392,13.17648051,.00015962,87.9161,358.6512,84.4998,275.6316,0,U,50472,999,22288,.30439345E-4,.25E-6,0
ONEWEB-0393,2021-132E,2026-07-23T10:18:34.156800,13.17648099,.0001677,87.9157,358.6535,91.1262,269.0062,0,U,50473,999,22288,.17370695E-4,.2E-6,0
ONEWEB-0394,2021-132F,2026-07-23T08:48:35.876160,13.18686074,.00017709,87.9210,328.2505,100.9424,259.1908,0,U,50474,999,22636,.12548284E-3,.62E-6,0
